{
  "norad_id": 57231,
  "name": "STARLINK-5840",
  "history": [
    {
      "epoch": "2026-03-28T20:13:30.910368Z",
      "apogee_km": 486.42539701574424,
      "perigee_km": 484.6763920664571,
      "latitude_deg": -6.544243811660865e-06,
      "longitude_deg": 152.99864229595934,
      "height_km": 485.6088147300189,
      "semi_major_axis_km": 6863.687894541101,
      "eccentricity": 0.00012741,
      "inclination_deg": 42.9994,
      "raan_deg": 282.6348,
      "arg_perigee_deg": 251.2289,
      "mean_anomaly_deg": 108.8424,
      "mean_motion_rev_day": 15.26744877
    }
  ]
}